CCSDS_OMM_VERS = 2.0
CREATION_DATE  = 
ORIGINATOR     = 

OBJECT_NAME    = 1998-067XU
OBJECT_ID      = 1998-067XU
CENTER_NAME    = EARTH
REF_FRAME      = TEME
TIME_SYSTEM    = UTC
MEAN_ELEMENT_THEORY = SGP/SGP4

EPOCH          = 2026-01-26T09:33:59.820192
MEAN_MOTION    = 15.58679078
ECCENTRICITY   = .0003121
INCLINATION    = 51.6280
RA_OF_ASC_NODE = 279.5069
ARG_OF_PERICENTER = 123.6224
MEAN_ANOMALY   = 236.5066

EPHEMERIS_TYPE = 0
CLASSIFICATION_TYPE = U
NORAD_CAT_ID   = 66908
ELEMENT_SET_NO = 999
REV_AT_EPOCH   = 856
BSTAR          = .13948E-2
MEAN_MOTION_DOT = .110361E-2
MEAN_MOTION_DDOT = 0

CCSDS_OMM_VERS = 2.0
CREATION_DATE  = 
ORIGINATOR     = 

OBJECT_NAME    = SILVERSAT
OBJECT_ID      = 1998-067XV
CENTER_NAME    = EARTH
REF_FRAME      = TEME
TIME_SYSTEM    = UTC
MEAN_ELEMENT_THEORY = SGP/SGP4

EPOCH          = 2026-01-25T23:58:41.778624
MEAN_MOTION    = 15.59630122
ECCENTRICITY   = .0003479
INCLINATION    = 51.6286
RA_OF_ASC_NODE = 281.3397
ARG_OF_PERICENTER = 136.3944
MEAN_ANOMALY   = 223.7324

EPHEMERIS_TYPE = 0
CLASSIFICATION_TYPE = U
NORAD_CAT_ID   = 66909
ELEMENT_SET_NO = 999
REV_AT_EPOCH   = 850
BSTAR          = .16023061E-2
MEAN_MOTION_DOT = .131885E-2
MEAN_MOTION_DDOT = 0

CCSDS_OMM_VERS = 2.0
CREATION_DATE  = 
ORIGINATOR     = 

OBJECT_NAME    = 1998-067XW
OBJECT_ID      = 1998-067XW
CENTER_NAME    = EARTH
REF_FRAME      = TEME
TIME_SYSTEM    = UTC
MEAN_ELEMENT_THEORY = SGP/SGP4

EPOCH          = 2026-01-25T17:57:30.186720
MEAN_MOTION    = 15.58765438
ECCENTRICITY   = .00018306
INCLINATION    = 51.6280
RA_OF_ASC_NODE = 282.6624
ARG_OF_PERICENTER = 113.0215
MEAN_ANOMALY   = 247.0971

EPHEMERIS_TYPE = 0
CLASSIFICATION_TYPE = U
NORAD_CAT_ID   = 66910
ELEMENT_SET_NO = 999
REV_AT_EPOCH   = 846
BSTAR          = .13849384E-2
MEAN_MOTION_DOT = .109918E-2
MEAN_MOTION_DDOT = 0

CCSDS_OMM_VERS = 2.0
CREATION_DATE  = 
ORIGINATOR     = 

OBJECT_NAME    = 1998-067XX
OBJECT_ID      = 1998-067XX
CENTER_NAME    = EARTH
REF_FRAME      = TEME
TIME_SYSTEM    = UTC
MEAN_ELEMENT_THEORY = SGP/SGP4

EPOCH          = 2026-01-26T10:14:59.851104
MEAN_MOTION    = 15.60789148
ECCENTRICITY   = .0002377
INCLINATION    = 51.6271
RA_OF_ASC_NODE = 278.9446
ARG_OF_PERICENTER = 151.9453
MEAN_ANOMALY   = 208.1669

EPHEMERIS_TYPE = 0
CLASSIFICATION_TYPE = U
NORAD_CAT_ID   = 66911
ELEMENT_SET_NO = 999
REV_AT_EPOCH   = 856
BSTAR          = .15632E-2
MEAN_MOTION_DOT = .134534E-2
MEAN_MOTION_DDOT = 0

CCSDS_OMM_VERS = 2.0
CREATION_DATE  = 
ORIGINATOR     = 

OBJECT_NAME    = 1998-067XY
OBJECT_ID      = 1998-067XY
CENTER_NAME    = EARTH
REF_FRAME      = TEME
TIME_SYSTEM    = UTC
MEAN_ELEMENT_THEORY = SGP/SGP4

EPOCH          = 2026-01-26T10:19:49.715328
MEAN_MOTION    = 15.56692528
ECCENTRICITY   = .0002766
INCLINATION    = 51.6298
RA_OF_ASC_NODE = 279.7213
ARG_OF_PERICENTER = 102.4295
MEAN_ANOMALY   = 257.7006

EPHEMERIS_TYPE = 0
CLASSIFICATION_TYPE = U
NORAD_CAT_ID   = 66912
ELEMENT_SET_NO = 999
REV_AT_EPOCH   = 855
BSTAR          = .11024E-2
MEAN_MOTION_DOT = .80532E-3
MEAN_MOTION_DDOT = 0

